NORAD_CAT_ID,OBJECT_NAME,OBJECT_TYPE,EPOCH,MEAN_MOTION,ECCENTRICITY,INCLINATION,RA_OF_ASC_NODE,ARG_OF_PERICENTER,MEAN_ANOMALY,BSTAR,MEAN_MOTION_DOT,MEAN_MOTION_DDOT,TLE_LINE0,TLE_LINE1,TLE_LINE2,SEMIMAJOR_AXIS,PERIOD,APOGEE,PERIGEE,DECAYED
52637.0,STARLINK-3961,PAYLOAD,2022-12-18 17:20:19,15.08832811,0.0002765,53.2172,142.7327,49.4959,310.6273,-1.398e-05,-5.11e-06,0.0,0 STARLINK-3961,1 52637U 22052AR  22352.72244492 -.00000511  00000-0 -13980-4 0  9996,2 52637  53.2172 142.7327 0002765  49.4959 310.6273 15.08832811 33826,6917.901999999999,95.438,541.68,537.855,0.0
52637.0,STARLINK-3961,PAYLOAD,2022-12-18 20:31:05,15.08833248,0.0002785,53.2173,142.138,48.9514,311.1718,-1.5865e-05,-5.41e-06,0.0,0 STARLINK-3961,1 52637U 22052AR  22352.85492525 -.00000541  00000-0 -15865-4 0  9999,2 52637  53.2173 142.1380 0002785  48.9514 311.1718 15.08833248 34278,6917.901,95.438,541.693,537.839,0.0
52637.0,STARLINK-3961,PAYLOAD,2022-12-19 15:35:42,15.08843876,0.0002764,53.2176,138.5695,48.1986,311.9242,0.00012545,1.709e-05,0.0,0 STARLINK-3961,1 52637U 22052AR  22353.64979633  .00001709  00000-0  12545-3 0  9993,2 52637  53.2176 138.5695 0002764  48.1986 311.9242 15.08843876 33964,6917.869000000002,95.437,541.646,537.821,0.0
52637.0,STARLINK-3961,PAYLOAD,2022-12-19 20:21:51,15.08849081,0.000277,53.2177,137.6775,47.7337,312.389,0.00014726,2.057e-05,0.0,0 STARLINK-3961,1 52637U 22052AR  22353.84851172  .00002057  00000-0  14726-3 0  9992,2 52637  53.2177 137.6775 0002770  47.7337 312.3890 15.08849081 34426,6917.853,95.437,541.634,537.8009999999998,0.0
52637.0,STARLINK-3961,PAYLOAD,2022-12-20 12:15:42,15.08845273,0.0002775,53.2171,134.7041,49.3632,310.7601,0.00017808,2.547e-05,0.0,0 STARLINK-3961,1 52637U 22052AR  22354.51091220  .00002547  00000-0  17808-3 0  9995,2 52637  53.2171 134.7041 0002775  49.3632 310.7601 15.08845273 34527,6917.864000000001,95.437,541.649,537.81,0.0
52637.0,STARLINK-3961,PAYLOAD,2022-12-20 18:37:15,15.08840219,0.0002666,53.2179,133.5151,47.9971,312.1248,0.00012061,1.632e-05,0.0,0 STARLINK-3961,1 52637U 22052AR  22354.77587583  .00001632  00000-0  12061-3 0  9995,2 52637  53.2179 133.5151 0002666  47.9971 312.1248 15.08840219 34138,6917.88,95.438,541.589,537.9,0.0
52637.0,STARLINK-3961,PAYLOAD,2022-12-21 08:55:44,15.08835275,0.0003033,53.218,130.8397,47.9393,312.1857,3.8851e-06,-2.27e-06,0.0,0 STARLINK-3961,1 52637U 22052AR  22355.37204363 -.00000227  00000-0  38851-5 0  9991,2 52637  53.2180 130.8397 0003033  47.9393 312.1857 15.08835275 34221,6917.895,95.438,541.8580000000002,537.6619999999998,0.0
52637.0,STARLINK-3961,PAYLOAD,2022-12-22 02:24:58,15.08847146,0.0002748,53.2178,127.5676,46.1358,313.986,-1.8837e-05,-5.88e-06,0.0,0 STARLINK-3961,1 52637U 22052AR  22356.10067515 -.00000588  00000-0 -18837-4 0  9991,2 52637  53.2178 127.5676 0002748  46.1358 313.9860 15.08847146 34330,6917.859,95.437,541.625,537.823,0.0
52637.0,STARLINK-3961,PAYLOAD,2022-12-22 08:46:31,15.08839887,0.000277,53.2178,126.3779,50.108,310.0156,-6.4833e-06,-3.92e-06,0.0,0 STARLINK-3961,1 52637U 22052AR  22356.36563991 -.00000392  00000-0 -64833-5 0  9999,2 52637  53.2178 126.3779 0002770  50.1080 310.0156 15.08839887 34376,6917.880999999999,95.438,541.6619999999998,537.8290000000002,0.0
52637.0,STARLINK-3961,PAYLOAD,2022-12-22 19:54:13,15.08843512,0.0002732,53.2176,124.2971,43.7115,316.4094,9.3618e-06,-1.4e-06,0.0,0 STARLINK-3961,1 52637U 22052AR  22356.82931733 -.00000140  00000-0  93618-5 0  9996,2 52637  53.2176 124.2971 0002732  43.7115 316.4094 15.08843512 34876,6917.87,95.437,541.625,537.845,0.0
52637.0,STARLINK-3961,PAYLOAD,2022-12-23 02:15:45,15.08836612,0.0002666,53.2176,123.1073,46.7986,313.3228,4.5976e-05,4.43e-06,0.0,0 STARLINK-3961,1 52637U 22052AR  22357.09428080  .00000443  00000-0  45976-4 0  9990,2 52637  53.2176 123.1073 0002666  46.7986 313.3228 15.08836612 34915,6917.891,95.438,541.6,537.911,0.0
52637.0,STARLINK-3961,PAYLOAD,2022-12-23 18:09:37,15.08833031,0.0002681,53.2177,120.1342,44.6478,315.4729,5.4077e-05,5.72e-06,0.0,0 STARLINK-3961,1 52637U 22052AR  22357.75668482  .00000572  00000-0  54077-4 0  9990,2 52637  53.2177 120.1342 0002681  44.6478 315.4729 15.08833031 34586,6917.901999999999,95.438,541.621,537.9119999999998,0.0
52637.0,STARLINK-3961,PAYLOAD,2022-12-23 19:45:00,15.08831956,0.0002641,53.2178,119.8355,46.5555,313.5656,2.6816e-05,1.38e-06,0.0,0 STARLINK-3961,1 52637U 22052AR  22357.82292688  .00000138  00000-0  26816-4 0  9997,2 52637  53.2178 119.8355 0002641  46.5555 313.5656 15.08831956 35021,6917.905,95.438,541.597,537.943,0.0
52637.0,STARLINK-3961,PAYLOAD,2022-12-24 08:28:05,15.08839861,0.0002976,53.218,117.4576,42.5388,317.5834,4.7626e-05,4.69e-06,0.0,0 STARLINK-3961,1 52637U 22052AR  22358.35284280  .00000469  00000-0  47626-4 0  9994,2 52637  53.2180 117.4576 0002976  42.5388 317.5834 15.08839861 35108,6917.880999999999,95.438,541.805,537.687,0.0
52637.0,STARLINK-3961,PAYLOAD,2022-12-24 19:35:47,15.08836566,0.0002545,53.2185,115.3754,41.1226,318.9957,3.1667e-05,2.16e-06,0.0,0 STARLINK-3961,1 52637U 22052AR  22358.81652569  .00000216  00000-0  31667-4 0  9992,2 52637  53.2185 115.3754 0002545  41.1226 318.9957 15.08836566 35173,6917.891,95.438,541.516,537.995,0.0
52637.0,STARLINK-3961,PAYLOAD,2022-12-25 08:18:53,15.08835889,0.0002509,53.2186,112.9968,41.0286,319.0895,3.6462e-05,2.92e-06,0.0,0 STARLINK-3961,1 52637U 22052AR  22359.34644712  .00000292  00000-0  36462-4 0  9994,2 52637  53.2186 112.9968 0002509  41.0286 319.0895 15.08835889 35258,6917.893,95.438,541.494,538.0219999999998,0.0
52637.0,STARLINK-3961,PAYLOAD,2022-12-25 19:26:35,15.08836447,0.0002621,53.2182,110.9156,40.0208,320.0977,3.8378e-06,-2.27e-06,0.0,0 STARLINK-3961,1 52637U 22052AR  22359.81012917 -.00000227  00000-0  38378-5 0  9990,2 52637  53.2182 110.9156 0002621  40.0208 320.0977 15.08836447 35321,6917.891,95.438,541.569,537.943,0.0
52637.0,STARLINK-3961,PAYLOAD,2022-12-26 00:12:44,15.08838471,0.0002688,53.2184,110.0236,38.8964,321.2221,2.2783000000000003e-08,-2.88e-06,0.0,0 STARLINK-3961,1 52637U 22052AR  22360.00884840 -.00000288  00000-0  22783-7 0  9997,2 52637  53.2184 110.0236 0002688  38.8964 321.2221 15.08838471 34929,6917.885,95.438,541.61,537.891,0.0
52637.0,STARLINK-3961,PAYLOAD,2022-12-26 17:41:59,15.08837157,0.0002687,53.2188,106.7522,39.7677,320.3512,4.9408e-05,4.98e-06,0.0,0 STARLINK-3961,1 52637U 22052AR  22360.73749155  .00000498  00000-0  49408-4 0  9998,2 52637  53.2188 106.7522 0002687  39.7677 320.3512 15.08837157 35466,6917.889,95.438,541.613,537.895,0.0
52637.0,STARLINK-3961,PAYLOAD,2022-12-27 06:25:03,15.08854845,0.0002619,53.2188,104.374,37.8552,322.2624,3.5071e-05,2.7000000000000004e-06,0.0,0 STARLINK-3961,1 52637U 22052AR  22361.26739885  .00000270  00000-0  35071-4 0  9995,2 52637  53.2188 104.3740 0002619  37.8552 322.2624 15.08854845 35118,6917.835,95.437,541.512,537.888,0.0
52637.0,STARLINK-3961,PAYLOAD,2022-12-28 09:26:36,15.08844228,0.0002077,53.2184,99.3142,34.0297,326.0828,0.00014684,2.05e-05,0.0,0 STARLINK-3961,1 52637U 22052AR  22362.39347664  .00002050  00000-0  14684-3 0  9994,2 52637  53.2184  99.3142 0002077  34.0297 326.0828 15.08844228 35286,6917.8669999999975,95.437,541.169,538.2959999999998,0.0
52637.0,STARLINK-3961,PAYLOAD,2022-12-28 23:45:05,15.08842821,0.000276,53.2182,96.6399,32.6404,327.4759,-0.00016842,-2.968e-05,0.0,0 STARLINK-3961,1 52637U 22052AR  22362.98964818 -.00002968  00000-0 -16842-3 0  9993,2 52637  53.2182  96.6399 0002760  32.6404 327.4759 15.08842821 35376,6917.871999999999,95.437,541.646,537.827,0.0
52637.0,STARLINK-3961,PAYLOAD,2022-12-29 12:28:12,15.08825065,0.0002593,53.2188,94.2642,31.2264,328.8882,-0.00017634,-3.093e-05,0.0,0 STARLINK-3961,1 52637U 22052AR  22363.51958336 -.00003093  00000-0 -17634-3 0  9991,2 52637  53.2188  94.2642 0002593  31.2264 328.8882 15.08825065 35452,6917.926,95.438,541.585,537.997,0.0
52637.0,STARLINK-3961,PAYLOAD,2022-12-30 10:43:35,15.08826372,0.0002476,53.2181,90.1019,26.7953,333.3167,8.0856e-05,9.98e-06,0.0,0 STARLINK-3961,1 52637U 22052AR  22364.44693937  .00000998  00000-0  80856-4 0  9993,2 52637  53.2181  90.1019 0002476  26.7953 333.3167 15.08826372 35596,6917.922,95.438,541.5,538.0740000000002,0.0
52637.0,STARLINK-3961,PAYLOAD,2022-12-30 12:18:57,15.08838476,0.0002569999999999,53.2183,89.8034,30.6261,329.4881,0.00016538,2.345e-05,0.0,0 STARLINK-3961,1 52637U 22052AR  22364.51317061  .00002345  00000-0  16538-3 0  9995,2 52637  53.2183  89.8034 0002570  30.6261 329.4881 15.08838476 36038,6917.885,95.438,541.528,537.972,0.0
52637.0,STARLINK-3961,PAYLOAD,2022-12-30 15:29:44,15.08841803,0.0002577,53.2183,89.2083,30.2118,329.9023,0.00018519,2.660000000000001e-05,0.0,0 STARLINK-3961,1 52637U 22052AR  22364.64564856  .00002660  00000-0  18519-3 0  9996,2 52637  53.2183  89.2083 0002577  30.2118 329.9023 15.08841803 35625,6917.875,95.437,541.523,537.957,0.0
52637.0,STARLINK-3961,PAYLOAD,2022-12-30 23:26:38,15.08855674,0.0002816999999999,53.2191,87.7238,28.2387,331.8758,0.00027171,4.04e-05,0.0,0 STARLINK-3961,1 52637U 22052AR  22364.97683694  .00004040  00000-0  27171-3 0  9992,2 52637  53.2191  87.7238 0002817  28.2387 331.8758 15.08855674 35674,6917.831999999999,95.437,541.646,537.749,0.0
52637.0,STARLINK-3961,PAYLOAD,2022-12-31 12:09:43,15.08849609,0.0002706,53.2181,85.345,32.9351,327.1809,0.00024784,3.659e-05,0.0,0 STARLINK-3961,1 52637U 22052AR  22365.50675770  .00003659  00000-0  24784-3 0  9990,2 52637  53.2181  85.3450 0002706  32.9351 327.1809 15.08849609 36186,6917.851,95.437,541.5880000000002,537.844,0.0
52637.0,STARLINK-3961,PAYLOAD,2022-12-31 13:45:06,15.08850574,0.0002624,53.218,85.0476,24.2696,335.8419,0.00023685,3.484e-05,0.0,0 STARLINK-3961,1 52637U 22052AR  22365.57299671  .00003484  00000-0  23685-3 0  9994,2 52637  53.2180  85.0476 0002624  24.2696 335.8419 15.08850574 36192,6917.848000000001,95.437,541.528,537.898,0.0
